[
    {
        "Altitude(m)": 704782.8436130327,
        "Argument of Periapsis(deg)": 0.0011390121186627068,
        "Eccentricity": 0.0,
        "Inclination(deg)": 45.0,
        "Latitude(deg)": 33.04842993841016,
        "Longitude(deg)": 150.274526428752,
        "Mean Anomaly(deg)": 50.24422166474807,
        "RAAN(deg)": 209.99892480585422,
        "Satellite Name": "Constellation 1 927",
        "Satellite Number": 927,
        "Semi-Major Axis(m)": 7083131.272910544,
        "Time(s)": 19
    },
    {
        "Altitude(m)": 704788.8154410847,
        "Argument of Periapsis(deg)": 0.0011989601249081123,
        "Eccentricity": 0.0,
        "Inclination(deg)": 45.0,
        "Latitude(deg)": 33.08127790800293,
        "Longitude(deg)": 150.3313359066652,
        "Mean Anomaly(deg)": 50.30492280499803,
        "RAAN(deg)": 209.99886821668863,
        "Satellite Name": "Constellation 1 927",
        "Satellite Number": 927,
        "Semi-Major Axis(m)": 7083131.272910544,
        "Time(s)": 20
    },
    {
        "Altitude(m)": 704794.7880439408,
        "Argument of Periapsis(deg)": 0.001258908131153518,
        "Eccentricity": 0.0,
        "Inclination(deg)": 45.0,
        "Latitude(deg)": 33.11409592860487,
        "Longitude(deg)": 150.38819063823126,
        "Mean Anomaly(deg)": 50.36562394524786,
        "RAAN(deg)": 209.99881162752308,
        "Satellite Name": "Constellation 1 927",
        "Satellite Number": 927,
        "Semi-Major Axis(m)": 7083131.272910544,
        "Time(s)": 21
    },
    {
        "Altitude(m)": 704800.7613826256,
        "Argument of Periapsis(deg)": 0.0013188561373989236,
        "Eccentricity": 0.0,
        "Inclination(deg)": 45.0,
        "Latitude(deg)": 33.14688394120016,
        "Longitude(deg)": 150.44509050444051,
        "Mean Anomaly(deg)": 50.42632508549776,
        "RAAN(deg)": 209.99875503835747,
        "Satellite Name": "Constellation 1 927",
        "Satellite Number": 927,
        "Semi-Major Axis(m)": 7083131.272910544,
        "Time(s)": 22
    },
    {
        "Altitude(m)": 704806.7354181734,
        "Argument of Periapsis(deg)": 0.0013788041436443293,
        "Eccentricity": 0.0,
        "Inclination(deg)": 45.0,
        "Latitude(deg)": 33.179641886700885,
        "Longitude(deg)": 150.50203589043932,
        "Mean Anomaly(deg)": 50.48702622574767,
        "RAAN(deg)": 209.99869844919192,
        "Satellite Name": "Constellation 1 927",
        "Satellite Number": 927,
        "Semi-Major Axis(m)": 7083131.272910544,
        "Time(s)": 23
    },
    {
        "Altitude(m)": 704812.7101116303,
        "Argument of Periapsis(deg)": 0.001438752149889735,
        "Eccentricity": 0.0,
        "Inclination(deg)": 45.0,
        "Latitude(deg)": 33.21236970594879,
        "Longitude(deg)": 150.55902667694636,
        "Mean Anomaly(deg)": 50.5477273659976,
        "RAAN(deg)": 209.99864186002634,
        "Satellite Name": "Constellation 1 927",
        "Satellite Number": 927,
        "Semi-Major Axis(m)": 7083131.272910544,
        "Time(s)": 24
    },
    {
        "Altitude(m)": 704818.6854240686,
        "Argument of Periapsis(deg)": 0.0014987001561351404,
        "Eccentricity": 0.0,
        "Inclination(deg)": 45.0,
        "Latitude(deg)": 33.245067339714375,
        "Longitude(deg)": 150.61606291264013,
        "Mean Anomaly(deg)": 50.60842850624749,
        "RAAN(deg)": 209.9985852708608,
        "Satellite Name": "Constellation 1 927",
        "Satellite Number": 927,
        "Semi-Major Axis(m)": 7083131.272910544,
        "Time(s)": 25
    },
    {
        "Altitude(m)": 704824.6613165516,
        "Argument of Periapsis(deg)": 0.001558648162380546,
        "Eccentricity": 0.0,
        "Inclination(deg)": 45.0,
        "Latitude(deg)": 33.27773472869713,
        "Longitude(deg)": 150.67314464606088,
        "Mean Anomaly(deg)": 50.669129646497346,
        "RAAN(deg)": 209.99852868169523,
        "Satellite Name": "Constellation 1 927",
        "Satellite Number": 927,
        "Semi-Major Axis(m)": 7083131.272910544,
        "Time(s)": 26
    },
    {
        "Altitude(m)": 704830.6377501758,
        "Argument of Periapsis(deg)": 0.0016185961686259519,
        "Eccentricity": 0.0,
        "Inclination(deg)": 45.0,
        "Latitude(deg)": 33.31037181352572,
        "Longitude(deg)": 150.73027192560932,
        "Mean Anomaly(deg)": 50.729830786747236,
        "RAAN(deg)": 209.99847209252962,
        "Satellite Name": "Constellation 1 927",
        "Satellite Number": 927,
        "Semi-Major Axis(m)": 7083131.272910544,
        "Time(s)": 27
    },
    {
        "Altitude(m)": 704836.6146860407,
        "Argument of Periapsis(deg)": 0.0016785441748713573,
        "Eccentricity": 0.0,
        "Inclination(deg)": 45.0,
        "Latitude(deg)": 33.34297853475809,
        "Longitude(deg)": 150.78744479954614,
        "Mean Anomaly(deg)": 50.790531926997204,
        "RAAN(deg)": 209.99841550336407,
        "Satellite Name": "Constellation 1 927",
        "Satellite Number": 927,
        "Semi-Major Axis(m)": 7083131.272910544,
        "Time(s)": 28
    },
    {
        "Altitude(m)": 704842.5920852675,
        "Argument of Periapsis(deg)": 0.001738492181116763,
        "Eccentricity": 0.0,
        "Inclination(deg)": 45.0,
        "Latitude(deg)": 33.37555483288122,
        "Longitude(deg)": 150.84466331599015,
        "Mean Anomaly(deg)": 50.85123306724709,
        "RAAN(deg)": 209.9983589141985,
        "Satellite Name": "Constellation 1 927",
        "Satellite Number": 927,
        "Semi-Major Axis(m)": 7083131.272910544,
        "Time(s)": 29
    },
    {
        "Altitude(m)": 704848.5699089817,
        "Argument of Periapsis(deg)": 0.0017984401873621684,
        "Eccentricity": 0.0,
        "Inclination(deg)": 45.0,
        "Latitude(deg)": 33.40810064831197,
        "Longitude(deg)": 150.90192735482074,
        "Mean Anomaly(deg)": 50.91193420749698,
        "RAAN(deg)": 209.99830232503294,
        "Satellite Name": "Constellation 1 927",
        "Satellite Number": 927,
        "Semi-Major Axis(m)": 7083131.272910544,
        "Time(s)": 30
    },
    {
        "Altitude(m)": 704854.5481183326,
        "Argument of Periapsis(deg)": 0.0018583881936075745,
        "Eccentricity": 0.0,
        "Inclination(deg)": 45.0,
        "Latitude(deg)": 33.44061592139577,
        "Longitude(deg)": 150.9592373000654,
        "Mean Anomaly(deg)": 50.97263534774689,
        "RAAN(deg)": 209.99824573586733,
        "Satellite Name": "Constellation 1 927",
        "Satellite Number": 927,
        "Semi-Major Axis(m)": 7083131.272910544,
        "Time(s)": 31
    },
    {
        "Altitude(m)": 704860.526674473,
        "Argument of Periapsis(deg)": 0.0019183361998529795,
        "Eccentricity": 0.0,
        "Inclination(deg)": 45.0,
        "Latitude(deg)": 33.473100592408464,
        "Longitude(deg)": 151.01659303131552,
        "Mean Anomaly(deg)": 51.03333648799677,
        "RAAN(deg)": 209.99818914670178,
        "Satellite Name": "Constellation 1 927",
        "Satellite Number": 927,
        "Semi-Major Axis(m)": 7083131.272910544,
        "Time(s)": 32
    },
    {
        "Altitude(m)": 704866.505538586,
        "Argument of Periapsis(deg)": 0.0019782842060983856,
        "Eccentricity": 0.0,
        "Inclination(deg)": 45.0,
        "Latitude(deg)": 33.50555460155513,
        "Longitude(deg)": 151.07399459611406,
        "Mean Anomaly(deg)": 51.09403762824665,
        "RAAN(deg)": 209.99813255753622,
        "Satellite Name": "Constellation 1 927",
        "Satellite Number": 927,
        "Semi-Major Axis(m)": 7083131.272910544,
        "Time(s)": 33
    },
    {
        "Altitude(m)": 704872.4846718492,
        "Argument of Periapsis(deg)": 0.0020382322123437906,
        "Eccentricity": 0.0,
        "Inclination(deg)": 45.0,
        "Latitude(deg)": 33.53797788897075,
        "Longitude(deg)": 151.13144204185724,
        "Mean Anomaly(deg)": 51.154738768496514,
        "RAAN(deg)": 209.99807596837064,
        "Satellite Name": "Constellation 1 927",
        "Satellite Number": 927,
        "Semi-Major Axis(m)": 7083131.272910544,
        "Time(s)": 34
    },
    {
        "Altitude(m)": 704878.4640354762,
        "Argument of Periapsis(deg)": 0.002098180218589197,
        "Eccentricity": 0.0,
        "Inclination(deg)": 45.0,
        "Latitude(deg)": 33.57037039471999,
        "Longitude(deg)": 151.18893541579376,
        "Mean Anomaly(deg)": 51.21543990874646,
        "RAAN(deg)": 209.9980193792051,
        "Satellite Name": "Constellation 1 927",
        "Satellite Number": 927,
        "Semi-Major Axis(m)": 7083131.272910544,
        "Time(s)": 35
    },
    {
        "Altitude(m)": 704884.4435906813,
        "Argument of Periapsis(deg)": 0.002158128224834602,
        "Eccentricity": 0.0,
        "Inclination(deg)": 45.0,
        "Latitude(deg)": 33.60273205879752,
        "Longitude(deg)": 151.24647476502346,
        "Mean Anomaly(deg)": 51.27614104899637,
        "RAAN(deg)": 209.99796279003948,
        "Satellite Name": "Constellation 1 927",
        "Satellite Number": 927,
        "Semi-Major Axis(m)": 7083131.272910544,
        "Time(s)": 36
    },
    {
        "Altitude(m)": 704890.4232986968,
        "Argument of Periapsis(deg)": 0.002218076231080008,
        "Eccentricity": 0.0,
        "Inclination(deg)": 45.0,
        "Latitude(deg)": 33.63506282112824,
        "Longitude(deg)": 151.3040599683992,
        "Mean Anomaly(deg)": 51.336842189246255,
        "RAAN(deg)": 209.99790620087393,
        "Satellite Name": "Constellation 1 927",
        "Satellite Number": 927,
        "Semi-Major Axis(m)": 7083131.272910544,
        "Time(s)": 37
    }
]